NORAD_CAT_ID,OBJECT_NAME,OBJECT_TYPE,EPOCH,MEAN_MOTION,ECCENTRICITY,INCLINATION,RA_OF_ASC_NODE,ARG_OF_PERICENTER,MEAN_ANOMALY,BSTAR,MEAN_MOTION_DOT,MEAN_MOTION_DDOT,TLE_LINE0,TLE_LINE1,TLE_LINE2,SEMIMAJOR_AXIS,PERIOD,APOGEE,PERIGEE,DECAYED
53269.0,STARLINK-4057,PAYLOAD,2023-06-01 21:26:34,15.08842206,0.0001085,53.2176,46.2511,101.6805,258.4309,-5.8304e-05,-1.216e-05,0.0,0 STARLINK-4057,1 53269U 22086AD  23152.89345584 -.00001216  00000-0 -58304-4 0  9998,2 53269  53.2176  46.2511 0001085 101.6805 258.4309 15.08842206 48273,6917.874,95.437,540.489,538.988,0.0
53269.0,STARLINK-4057,PAYLOAD,2023-06-02 02:12:43,15.08848797,0.000119,53.2179,45.3582,87.1172,272.9956,-1.6727e-05,-5.54e-06,0.0,0 STARLINK-4057,1 53269U 22086AD  23153.09217057 -.00000554  00000-0 -16727-4 0  9991,2 53269  53.2179  45.3582 0001190  87.1172 272.9956 15.08848797 48300,6917.854,95.437,540.542,538.895,0.0
53269.0,STARLINK-4057,PAYLOAD,2023-06-02 21:17:21,15.08845172,0.0001386,53.2194,41.7827,96.3953,263.7197,-1.4219e-05,-5.14e-06,0.0,0 STARLINK-4057,1 53269U 22086AD  23153.88705363 -.00000514  00000-0 -14219-4 0  9990,2 53269  53.2194  41.7827 0001386  96.3953 263.7197 15.08845172 48607,6917.865,95.437,540.688,538.771,0.0
53269.0,STARLINK-4057,PAYLOAD,2023-06-02 22:52:44,15.08842846,0.0001304,53.2191,41.4868,102.3631,257.7507,1.8306e-05,3e-08,0.0,0 STARLINK-4057,1 53269U 22086AD  23153.95329351  .00000003  00000-0  18306-4 0  9999,2 53269  53.2191  41.4868 0001304 102.3631 257.7507 15.08842846 48431,6917.872,95.437,540.639,538.835,0.0
53269.0,STARLINK-4057,PAYLOAD,2023-06-03 21:08:08,15.08843238,0.0001221,53.218,37.3295,92.0239,268.0893,5.6395e-05,6.1e-06,0.0,0 STARLINK-4057,1 53269U 22086AD  23154.88065356  .00000610  00000-0  56395-4 0  9998,2 53269  53.2180  37.3295 0001221  92.0239 268.0893 15.08843238 48758,6917.87,95.437,540.58,538.891,0.0
53269.0,STARLINK-4057,PAYLOAD,2023-06-04 01:54:17,15.0884331,0.0001277,53.2181,36.4369,91.7934,268.3204,8.9918e-05,1.144e-05,0.0,0 STARLINK-4057,1 53269U 22086AD  23155.07937216  .00001144  00000-0  89918-4 0  9993,2 53269  53.2181  36.4369 0001277  91.7934 268.3204 15.08843310 48604,6917.87,95.437,540.619,538.852,0.0
53269.0,STARLINK-4057,PAYLOAD,2023-06-04 11:26:36,15.08839367,0.0001195,53.2169,34.6524,90.681,269.4319,5.6315e-05,6.09e-06,0.0,0 STARLINK-4057,1 53269U 22086AD  23155.47681504  .00000609  00000-0  56315-4 0  9993,2 53269  53.2169  34.6524 0001195  90.6810 269.4319 15.08839367 48845,6917.882,95.438,540.574,538.921,0.0
53269.0,STARLINK-4057,PAYLOAD,2023-06-04 19:23:32,15.08840877,0.0001138,53.2178,33.1666,95.6077,264.5045,2.6695e-06,-2.45e-06,0.0,0 STARLINK-4057,1 53269U 22086AD  23155.80801644 -.00000245  00000-0  26695-5 0  9995,2 53269  53.2178  33.1666 0001138  95.6077 264.5045 15.08840877 48719,6917.878,95.437,540.53,538.955,0.0
53269.0,STARLINK-4057,PAYLOAD,2023-06-04 22:34:18,15.0884196,0.0001152,53.2184,32.5733,93.7156,266.3968,7.7958e-05,9.53e-06,0.0,0 STARLINK-4057,1 53269U 22086AD  23155.94049311  .00000953  00000-0  77958-4 0  9997,2 53269  53.2184  32.5733 0001152  93.7156 266.3968 15.08841960 48917,6917.874,95.437,540.536,538.942,0.0
53269.0,STARLINK-4057,PAYLOAD,2023-06-05 19:14:19,15.08836351,0.0001233,53.2181,28.7062,93.1929,266.9204,-1.243e-05,-4.86e-06,0.0,0 STARLINK-4057,1 53269U 22086AD  23156.80162012 -.00000486  00000-0 -12430-4 0  9994,2 53269  53.2181  28.7062 0001233  93.1929 266.9204 15.08836351 49040,6917.892,95.438,540.61,538.904,0.0
53269.0,STARLINK-4057,PAYLOAD,2023-06-06 01:35:52,15.0883924,0.0001203,53.2178,27.5171,92.2117,267.9013,3.5318e-05,2.74e-06,0.0,0 STARLINK-4057,1 53269U 22086AD  23157.06657675  .00000274  00000-0  35318-4 0  9990,2 53269  53.2178  27.5171 0001203  92.2117 267.9013 15.08839240 48903,6917.883,95.438,540.58,538.915,0.0
53269.0,STARLINK-4057,PAYLOAD,2023-06-06 11:08:14,15.0880296,0.0001167,53.2179,25.7343,74.9827,285.1294,-0.00021607,-3.721e-05,0.0,0 STARLINK-4057,1 53269U 22086AD  23157.46405278 -.00003721  00000-0 -21607-3 0  9991,2 53269  53.2179  25.7343 0001167  74.9827 285.1294 15.08802960 49148,6917.994,95.44,540.666,539.051,0.0
53269.0,STARLINK-4057,PAYLOAD,2023-06-06 17:29:45,15.08822538,0.0001209,53.2179,24.5447,92.5717,267.5414,-4.1729e-05,-9.52e-06,0.0,0 STARLINK-4057,1 53269U 22086AD  23157.72899878 -.00000952  00000-0 -41729-4 0  9994,2 53269  53.2179  24.5447 0001209  92.5717 267.5414 15.08822538 49007,6917.934,95.439,540.635,538.962,0.0
53269.0,STARLINK-4057,PAYLOAD,2023-06-06 19:05:08,15.08823142,0.0001216,53.2179,24.2475,91.0494,269.0638,-3.505e-05,-8.45e-06,0.0,0 STARLINK-4057,1 53269U 22086AD  23157.79523928 -.00000845  00000-0 -35050-4 0  9992,2 53269  53.2179  24.2475 0001216  91.0494 269.0638 15.08823142 49196,6917.932,95.439,540.638,538.956,0.0
53269.0,STARLINK-4057,PAYLOAD,2023-06-07 09:23:36,15.08828396,0.0001258,53.2175,21.5715,93.6112,266.5024,5.1373e-05,5.3e-06,0.0,0 STARLINK-4057,1 53269U 22086AD  23158.39139945  .00000530  00000-0  51373-4 0  9996,2 53269  53.2175  21.5715 0001258  93.6112 266.5024 15.08828396 49108,6917.916,95.438,540.651,538.911,0.0
53269.0,STARLINK-4057,PAYLOAD,2023-06-07 17:20:31,15.08843815,0.000126,53.2176,20.0843,90.5516,269.5621,0.00014716,2.055e-05,0.0,0 STARLINK-4057,1 53269U 22086AD  23158.72258752  .00002055  00000-0  14716-3 0  9994,2 53269  53.2176  20.0843 0001260  90.5516 269.5621 15.08843815 49156,6917.869,95.437,540.605,538.862,0.0
53269.0,STARLINK-4057,PAYLOAD,2023-06-07 20:31:17,15.08848057,0.0001227,53.2176,19.4894,90.7182,269.395,0.00018491,2.657e-05,0.0,0 STARLINK-4057,1 53269U 22086AD  23158.85506469  .00002657  00000-0  18491-3 0  9991,2 53269  53.2176  19.4894 0001227  90.7182 269.3950 15.08848057 49356,6917.856,95.437,540.57,538.872,0.0
53269.0,STARLINK-4057,PAYLOAD,2023-06-07 23:42:04,15.0885349,0.000124,53.2168,18.8945,92.1062,268.0072,0.00039541,6.013e-05,0.0,0 STARLINK-4057,1 53269U 22086AD  23158.98754661  .00006013  00000-0  39541-3 0  9993,2 53269  53.2168  18.8945 0001240  92.1062 268.0072 15.08853490 49375,6917.839,95.437,540.562,538.846,0.0
53269.0,STARLINK-4057,PAYLOAD,2023-06-08 23:32:50,15.08856552,0.0001328,53.2164,14.4332,106.596,253.5179,0.0002703,4.018e-05,0.0,0 STARLINK-4057,1 53269U 22086AD  23159.98114289  .00004018  00000-0  27030-3 0  9993,2 53269  53.2164  14.4332 0001328 106.5960 253.5179 15.08856552 49343,6917.83,95.437,540.613,538.776,0.0
53269.0,STARLINK-4057,PAYLOAD,2023-06-09 07:29:46,15.08849003,0.0001276,53.2171,12.9417,92.1985,267.9153,-0.00013519,-2.439e-05,0.0,0 STARLINK-4057,1 53269U 22086AD  23160.31234212 -.00002439  00000-0 -13519-3 0  9995,2 53269  53.2171  12.9417 0001276  92.1985 267.9153 15.08849003 49396,6917.853,95.437,540.601,538.835,0.0
53269.0,STARLINK-4057,PAYLOAD,2023-06-09 20:12:51,15.08845702,0.0001188,53.2168,10.5694,79.9922,280.1204,-3.1235e-05,-7.85e-06,0.0,0 STARLINK-4057,1 53269U 22086AD  23160.84226511 -.00000785  00000-0 -31235-4 0  9994,2 53269  53.2168  10.5694 0001188  79.9922 280.1204 15.08845702 49654,6917.863,95.437,540.55,538.906,0.0
53269.0,STARLINK-4057,PAYLOAD,2023-06-10 08:55:56,15.08845559,0.0001273,53.2168,8.1885,83.4814,276.6323,-7.4928e-05,-1.48e-05,0.0,0 STARLINK-4057,1 53269U 22086AD  23161.37218242 -.00001480  00000-0 -74928-4 0  9994,2 53269  53.2168   8.1885 0001273  83.4814 276.6323 15.08845559 49555,6917.863,95.437,540.609,538.848,0.0
53269.0,STARLINK-4057,PAYLOAD,2023-06-10 13:42:06,15.08845781,0.0001125,53.2174,7.2974,99.2796,260.8324,-3.3522e-05,-8.21e-06,0.0,0 STARLINK-4057,1 53269U 22086AD  23161.57090681 -.00000821  00000-0 -33522-4 0  9994,2 53269  53.2174   7.2974 0001125  99.2796 260.8324 15.08845781 49767,6917.863,95.437,540.506,538.949,0.0
53269.0,STARLINK-4057,PAYLOAD,2023-06-10 20:03:38,15.08846117,0.0001134,53.2176,6.1075,97.8998,262.2123,-3.111e-05,-7.83e-06,0.0,0 STARLINK-4057,1 53269U 22086AD  23161.83586546 -.00000783  00000-0 -31110-4 0  9991,2 53269  53.2176   6.1075 0001134  97.8998 262.2123 15.08846117 49809,6917.862,95.437,540.511,538.942,0.0
53269.0,STARLINK-4057,PAYLOAD,2023-06-11 07:11:20,15.08850478,0.0001152,53.2177,4.0266,91.5958,268.5166,5.3595e-06,-2.03e-06,0.0,0 STARLINK-4057,1 53269U 22086AD  23162.29954013 -.00000203  00000-0  53595-5 0  9998,2 53269  53.2177   4.0266 0001152  91.5958 268.5166 15.08850478 49874,6917.848,95.437,540.51,538.916,0.0
53269.0,STARLINK-4057,PAYLOAD,2023-06-11 15:08:16,15.08841714,0.0001143,53.2179,2.54,83.3962,276.716,9.793e-05,1.271e-05,0.0,0 STARLINK-4057,1 53269U 22086AD  23162.63074369  .00001271  00000-0  97930-4 0  9998,2 53269  53.2179   2.5400 0001143  83.3962 276.7160 15.08841714 49747,6917.875,95.437,540.531,538.949,0.0
53269.0,STARLINK-4057,PAYLOAD,2023-06-11 19:54:25,15.08847782,0.000112,53.2179,1.6472,87.0394,273.0727,0.00014697,2.052e-05,0.0,0 STARLINK-4057,1 53269U 22086AD  23162.82945837  .00002052  00000-0  14697-3 0  9992,2 53269  53.2179   1.6472 0001120  87.0394 273.0727 15.08847782 49954,6917.857,95.437,540.496,538.947,0.0
53269.0,STARLINK-4057,PAYLOAD,2023-06-11 23:05:11,15.08852344,0.0001199,53.2177,1.0523,87.5634,272.5495,0.00014808,2.07e-05,0.0,0 STARLINK-4057,1 53269U 22086AD  23162.96193532  .00002070  00000-0  14808-3 0  9998,2 53269  53.2177   1.0523 0001199  87.5634 272.5495 15.08852344 49799,6917.843,95.437,540.537,538.878,0.0
53269.0,STARLINK-4057,PAYLOAD,2023-06-12 19:45:12,15.0883693,0.0001236,53.2175,357.1855,88.3303,271.7831,7.354e-05,8.83e-06,0.0,0 STARLINK-4057,1 53269U 22086AD  23163.82306664  .00000883  00000-0  73540-4 0  9995,2 53269  53.2175 357.1855 0001236  88.3303 271.7831 15.08836930 49927,6917.89,95.438,540.61,538.9,0.0
53269.0,STARLINK-4057,PAYLOAD,2023-06-13 19:36:00,15.0883821,0.0001106,53.2184,352.7261,90.0369,270.075,3.1584e-05,2.15e-06,0.0,0 STARLINK-4057,1 53269U 22086AD  23164.81666678  .00000215  00000-0  31584-4 0  9990,2 53269  53.2184 352.7261 0001106  90.0369 270.0750 15.08838210 50250,6917.886,95.438,540.516,538.986,0.0
